NORAD_CAT_ID,OBJECT_NAME,OBJECT_TYPE,EPOCH,MEAN_MOTION,ECCENTRICITY,INCLINATION,RA_OF_ASC_NODE,ARG_OF_PERICENTER,MEAN_ANOMALY,BSTAR,MEAN_MOTION_DOT,MEAN_MOTION_DDOT,TLE_LINE0,TLE_LINE1,TLE_LINE2,SEMIMAJOR_AXIS,PERIOD,APOGEE,PERIGEE,DECAYED
53011.0,STARLINK-4265,PAYLOAD,2022-07-25 06:00:00,15.73195543,0.0001857,53.2197,291.9582,38.6781,34.2819,0.00030852,0.00042892,0.0,0 STARLINK-4265,1 53011U 22076AB  22206.25001157  .00042892  00000-0  30852-3 0  9996,2 53011  53.2197 291.9582 0001857  38.6781  34.2819 15.73195543  3282,6727.908,91.533,351.022,348.524,0.0
53011.0,STARLINK-4265,PAYLOAD,2022-07-25 14:00:01,15.73237515,0.0002081,53.2194,290.3108,32.4432,129.4644,-0.00027574,-0.00039205,0.0,0 STARLINK-4265,1 53011U 22076AB  22206.58334491 -.00039205  00000-0 -27574-3 0  9995,2 53011  53.2194 290.3108 0002081  32.4432 129.4644 15.73237515  1301,6727.788000000001,91.531,351.05300000000005,348.25300000000016,0.0
53011.0,STARLINK-4265,PAYLOAD,2022-07-25 22:00:00,15.73212247,0.0001881,53.2189,288.6602,29.0977,221.7698,-0.00016085,-0.00023146,0.0,0 STARLINK-4265,1 53011U 22076AB  22206.91667824 -.00023146  00000-0 -16085-3 0  9993,2 53011  53.2189 288.6602 0001881  29.0977 221.7698 15.73212247  3398,6727.86,91.532,350.991,348.46,0.0
53011.0,STARLINK-4265,PAYLOAD,2022-07-26 14:00:01,15.73243285,0.0001986,53.2187,285.3615,25.9093,42.8311,-0.00038691,-0.00054674,0.0,0 STARLINK-4265,1 53011U 22076AB  22207.58334491 -.00054674  00000-0 -38691-3 0  9995,2 53011  53.2187 285.3615 0001986  25.9093  42.8311 15.73243285  3495,6727.772,91.531,350.973,348.301,0.0
53011.0,STARLINK-4265,PAYLOAD,2022-07-26 22:00:00,15.73205617,0.0001863,53.2193,283.7122,21.4583,136.2407,-3.5734e-06,-1.123e-05,0.0,0 STARLINK-4265,1 53011U 22076AB  22207.91667824 -.00001123  00000-0 -35734-5 0  9999,2 53011  53.2193 283.7122 0001863  21.4583 136.2407 15.73205617  1305,6727.879,91.533,350.99800000000016,348.491,0.0
53011.0,STARLINK-4265,PAYLOAD,2022-07-27 06:00:02,15.73226545,0.0001839,53.2195,282.0623,26.6485,220.0478,0.00023013,0.00031837,0.0,0 STARLINK-4265,1 53011U 22076AB  22208.25002315  .00031837  00000-0  23013-3 0  9993,2 53011  53.2195 282.0623 0001839  26.6485 220.0478 15.73226545  3604,6727.819,91.532,350.922,348.44699999999995,0.0
53011.0,STARLINK-4265,PAYLOAD,2022-07-27 14:00:01,15.73227359,0.0002195999999999,53.2191,280.415,27.1506,308.436,-0.00032032,-0.00045392,0.0,0 STARLINK-4265,1 53011U 22076AB  22208.58334491 -.00045392  00000-0 -32032-3 0  9996,2 53011  53.2191 280.4150 0002196  27.1506 308.4360 15.73227359  1304,6727.816999999999,91.532,351.16,348.205,0.0
53011.0,STARLINK-4265,PAYLOAD,2022-07-27 16:00:00,15.73196258,0.0002217,53.2187,280.0027,26.4129,61.4202,5.9358e-05,7.716e-05,0.0,0 STARLINK-4265,1 53011U 22076AB  22208.66667824  .00007716  00000-0  59358-4 0  9991,2 53011  53.2187 280.0027 0002217  26.4129  61.4202 15.73196258  3660,6727.906,91.533,351.26199999999994,348.279,0.0
53011.0,STARLINK-4265,PAYLOAD,2022-07-27 22:00:00,15.73195957,0.0002065,53.2186,278.7641,30.6041,33.9254,6.9805e-05,9.185e-05,0.0,0 STARLINK-4265,1 53011U 22076AB  22208.91667824  .00009185  00000-0  69805-4 0  9999,2 53011  53.2186 278.7641 0002065  30.6041  33.9254 15.73195957  1301,6727.906999999997,91.533,351.161,348.38199999999995,0.0
53011.0,STARLINK-4265,PAYLOAD,2022-07-28 08:00:01,15.73280735,0.0001962,53.2187,276.7028,21.7333,243.9745,-0.00071721,-0.00100438,0.0,0 STARLINK-4265,1 53011U 22076AB  22209.33334491 -.00100438  00000-0 -71721-3 0  9991,2 53011  53.2187 276.7028 0001962  21.7333 243.9745 15.73280735  3779,6727.665,91.528,350.85,348.21,0.0
53011.0,STARLINK-4265,PAYLOAD,2022-07-28 14:00:01,15.73167689,0.0002254,53.2188,275.4671,22.1014,220.3502,0.00036787,0.00051255,0.0,0 STARLINK-4265,1 53011U 22076AB  22209.58334491  .00051255  00000-0  36787-3 0  9991,2 53011  53.2188 275.4671 0002254  22.1014 220.3502 15.73167689  1305,6727.986999999999,91.535,351.369,348.336,0.0
53011.0,STARLINK-4265,PAYLOAD,2022-07-28 22:00:00,15.73231701,0.0002044,53.2188,273.816,21.4805,309.8888,-0.00066029,-0.00092411,0.0,0 STARLINK-4265,1 53011U 22076AB  22209.91667824 -.00092411  00000-0 -66029-3 0  9990,2 53011  53.2188 273.8160 0002044  21.4805 309.8888 15.73231701  1304,6727.805,91.531,351.045,348.295,0.0
53011.0,STARLINK-4265,PAYLOAD,2022-07-29 00:00:00,15.73184929,0.0001992,53.2188,273.4032,20.2982,63.3195,-0.00011788,-0.00017121,0.0,0 STARLINK-4265,1 53011U 22076AB  22210.00001157 -.00017121  00000-0 -11788-3 0  9990,2 53011  53.2188 273.4032 0001992  20.2982  63.3195 15.73184929  3878,6727.938,91.534,351.14300000000014,348.463,0.0
53011.0,STARLINK-4265,PAYLOAD,2022-07-29 14:00:01,15.73156676,0.0002334999999999,53.2185,270.519,19.3271,129.8656,0.00050376,0.00070548,0.0,0 STARLINK-4265,1 53011U 22076AB  22210.58334491  .00070548  00000-0  50376-3 0  9999,2 53011  53.2185 270.5190 0002335  19.3271 129.8656 15.73156676  1304,6728.019,91.536,351.455,348.31300000000016,0.0
53011.0,STARLINK-4265,PAYLOAD,2022-07-29 22:00:00,15.73194601,0.0002145,53.2182,268.8678,20.989,217.1055,0.00012235,0.00016581,0.0,0 STARLINK-4265,1 53011U 22076AB  22210.91667824  .00016581  00000-0  12235-3 0  9994,2 53011  53.2182 268.8678 0002145  20.9890 217.1055 15.73194601  1300,6727.911,91.533,351.219,348.332,0.0
53011.0,STARLINK-4265,PAYLOAD,2022-07-30 14:00:01,15.73219801,0.0002315,53.2181,265.5709,17.1798,38.7993,-0.00020587,-0.00029441,0.0,0 STARLINK-4265,1 53011U 22076AB  22211.58334491 -.00029441  00000-0 -20587-3 0  9999,2 53011  53.2181 265.5709 0002315  17.1798  38.7993 15.73219801  1300,6727.839,91.532,351.261,348.146,0.0
53011.0,STARLINK-4265,PAYLOAD,2022-07-30 22:00:00,15.73179224,0.0002143,53.2184,263.9194,15.2923,129.6327,0.00022254,0.00030699,0.0,0 STARLINK-4265,1 53011U 22076AB  22211.91667824  .00030699  00000-0  22254-3 0  9993,2 53011  53.2184 263.9194 0002143  15.2923 129.6327 15.73179224  4174,6727.954000000002,91.534,351.261,348.37800000000016,0.0
53011.0,STARLINK-4265,PAYLOAD,2022-07-31 14:00:01,15.73194543,0.0002496,53.218,260.6224,17.6295,305.1555,0.00046423,0.00065027,0.0,0 STARLINK-4265,1 53011U 22076AB  22212.58334491  .00065027  00000-0  46423-3 0  9995,2 53011  53.2180 260.6224 0002496  17.6295 305.1555 15.73194543  1304,6727.911,91.533,351.455,348.096,0.0
53011.0,STARLINK-4265,PAYLOAD,2022-07-31 22:00:00,15.73240324,0.0002269,53.2179,258.9709,20.6385,31.1024,-8.6251e-05,-0.00012731,0.0,0 STARLINK-4265,1 53011U 22076AB  22212.91667824 -.00012731  00000-0 -86251-4 0  9991,2 53011  53.2179 258.9709 0002269  20.6385  31.1024 15.73240324  1308,6727.78,91.531,351.172,348.119,0.0
53011.0,STARLINK-4265,PAYLOAD,2022-08-01 04:00:00,15.7324041,0.0002275999999999,53.2181,257.7337,25.471,2.9961,-0.00033913,-0.00048033,0.0,0 STARLINK-4265,1 53011U 22076AB  22213.16667824 -.00048033  00000-0 -33913-3 0  9999,2 53011  53.2181 257.7337 0002276  25.4710   2.9961 15.73240410  4370,6727.78,91.531,351.176,348.11400000000015,0.0
53011.0,STARLINK-4265,PAYLOAD,2022-08-01 14:00:01,15.73199332,0.000256,53.2179,255.6738,22.4263,207.2401,0.00036149,0.0005042,0.0,0 STARLINK-4265,1 53011U 22076AB  22213.58334491  .00050420  00000-0  36149-3 0  9991,2 53011  53.2179 255.6738 0002560  22.4263 207.2401 15.73199332  4448,6727.897,91.533,351.4840000000001,348.04,0.0
53011.0,STARLINK-4265,PAYLOAD,2022-08-01 22:00:00,15.73191263,0.0002340999999999,53.2183,254.0222,23.1083,295.5154,-7.1791e-05,-0.00010682,0.0,0 STARLINK-4265,1 53011U 22076AB  22213.91667824 -.00010682  00000-0 -71791-4 0  9998,2 53011  53.2183 254.0222 0002341  23.1083 295.5154 15.73191263  4494,6727.92,91.534,351.36,348.21,0.0
53011.0,STARLINK-4265,PAYLOAD,2022-08-02 14:00:01,15.73183195,0.0002652,53.2182,250.7251,21.302,115.162,0.00046097,0.00064532,0.0,0 STARLINK-4265,1 53011U 22076AB  22214.58334491  .00064532  00000-0  46097-3 0  9994,2 53011  53.2182 250.7251 0002652  21.3020 115.1620 15.73183195  1301,6727.943,91.534,351.592,348.024,0.0
53011.0,STARLINK-4265,PAYLOAD,2022-08-03 06:00:00,15.73208196,0.0002406,53.2184,247.4251,19.7319,294.6215,-0.00015573,-0.0002243,0.0,0 STARLINK-4265,1 53011U 22076AB  22215.25001157 -.00022430  00000-0 -15573-3 0  9997,2 53011  53.2184 247.4251 0002406  19.7319 294.6215 15.73208196  4704,6727.871999999999,91.533,351.356,348.11800000000005,0.0
53011.0,STARLINK-4265,PAYLOAD,2022-08-03 14:00:01,15.73189323,0.0002618,53.2182,245.7768,17.0179,26.2602,0.00031994,0.00044503,0.0,0 STARLINK-4265,1 53011U 22076AB  22215.58334491  .00044503  00000-0  31994-3 0  9991,2 53011  53.2182 245.7768 0002618  17.0179  26.2602 15.73189323  1308,6727.926,91.534,351.552,348.029,0.0
53011.0,STARLINK-4265,PAYLOAD,2022-08-03 22:00:01,15.73187908,0.0002335999999999,53.2187,244.1251,15.8234,116.4709,-5.4672e-05,-8.284e-05,0.0,0 STARLINK-4265,1 53011U 22076AB  22215.91668981 -.00008284  00000-0 -54672-4 0  9999,2 53011  53.2187 244.1251 0002336  15.8234 116.4709 15.73187908  1305,6727.93,91.534,351.366,348.223,0.0
53011.0,STARLINK-4265,PAYLOAD,2022-08-04 14:00:01,15.73204386,0.0002234999999999,53.2173,240.8151,14.4749,295.4909,1.0509e-05,8.54e-06,0.0,0 STARLINK-4265,1 53011U 22076AB  22216.58334491  .00000854  00000-0  10509-4 0  9993,2 53011  53.2173 240.8151 0002235  14.4749 295.4909 15.73204386  1306,6727.8830000000025,91.533,351.251,348.244,0.0
53011.0,STARLINK-4265,PAYLOAD,2022-08-04 22:00:00,15.73212353,0.0002452,53.2187,239.1769,19.7191,19.2763,0.00012513,0.00016986,0.0,0 STARLINK-4265,1 53011U 22076AB  22216.91667824  .00016986  00000-0  12513-3 0  9998,2 53011  53.2187 239.1769 0002452  19.7191  19.2763 15.73212353  4965,6727.86,91.532,351.375,348.075,0.0
53011.0,STARLINK-4265,PAYLOAD,2022-08-05 14:00:01,15.73201125,0.0002741,53.2185,235.8801,22.0588,194.8885,0.00024425,0.00033801,0.0,0 STARLINK-4265,1 53011U 22076AB  22217.58335648  .00033801  00000-0  24425-3 0  9998,2 53011  53.2185 235.8801 0002741  22.0588 194.8885 15.73201125  1306,6727.892,91.533,351.601,347.913,0.0
